CCSDS_OMM_VERS = 2.0
CREATION_DATE  = 
ORIGINATOR     = 

OBJECT_NAME    = STARLINK-35524
OBJECT_ID      = 2025-225E
CENTER_NAME    = EARTH
REF_FRAME      = TEME
TIME_SYSTEM    = UTC
MEAN_ELEMENT_THEORY = SGP/SGP4

EPOCH          = 2025-11-01T14:00:01.999872
MEAN_MOTION    = 15.51818162
ECCENTRICITY   = .00011121
INCLINATION    = 53.1603
RA_OF_ASC_NODE = 43.1323
ARG_OF_PERICENTER = 69.8775
MEAN_ANOMALY   = 179.8039

EPHEMERIS_TYPE = 0
CLASSIFICATION_TYPE = U
NORAD_CAT_ID   = 65914
ELEMENT_SET_NO = 999
REV_AT_EPOCH   = 481
BSTAR          = -.34243183E-1
MEAN_MOTION_DOT = -.1842808E-1
MEAN_MOTION_DDOT = 0

CCSDS_OMM_VERS = 2.0
CREATION_DATE  = 
ORIGINATOR     = 

OBJECT_NAME    = STARLINK-35539
OBJECT_ID      = 2025-225F
CENTER_NAME    = EARTH
REF_FRAME      = TEME
TIME_SYSTEM    = UTC
MEAN_ELEMENT_THEORY = SGP/SGP4

EPOCH          = 2025-11-01T14:00:01.999872
MEAN_MOTION    = 15.40685083
ECCENTRICITY   = .00013616
INCLINATION    = 53.1594
RA_OF_ASC_NODE = 43.5778
ARG_OF_PERICENTER = 91.7168
MEAN_ANOMALY   = 296.6483

EPHEMERIS_TYPE = 0
CLASSIFICATION_TYPE = U
NORAD_CAT_ID   = 65915
ELEMENT_SET_NO = 999
REV_AT_EPOCH   = 475
BSTAR          = -.40100517E-1
MEAN_MOTION_DOT = -.1501148E-1
MEAN_MOTION_DDOT = 0

CCSDS_OMM_VERS = 2.0
CREATION_DATE  = 
ORIGINATOR     = 

OBJECT_NAME    = STARLINK-35521
OBJECT_ID      = 2025-225G
CENTER_NAME    = EARTH
REF_FRAME      = TEME
TIME_SYSTEM    = UTC
MEAN_ELEMENT_THEORY = SGP/SGP4

EPOCH          = 2025-11-01T14:00:01.999872
MEAN_MOTION    = 15.51820579
ECCENTRICITY   = .00011824
INCLINATION    = 53.1608
RA_OF_ASC_NODE = 43.1235
ARG_OF_PERICENTER = 71.5413
MEAN_ANOMALY   = 181.9729

EPHEMERIS_TYPE = 0
CLASSIFICATION_TYPE = U
NORAD_CAT_ID   = 65916
ELEMENT_SET_NO = 999
REV_AT_EPOCH   = 481
BSTAR          = -.34381583E-1
MEAN_MOTION_DOT = -.1849573E-1
MEAN_MOTION_DDOT = 0

CCSDS_OMM_VERS = 2.0
CREATION_DATE  = 
ORIGINATOR     = 

OBJECT_NAME    = STARLINK-35478
OBJECT_ID      = 2025-225H
CENTER_NAME    = EARTH
REF_FRAME      = TEME
TIME_SYSTEM    = UTC
MEAN_ELEMENT_THEORY = SGP/SGP4

EPOCH          = 2025-11-01T14:00:01.999872
MEAN_MOTION    = 15.51816457
ECCENTRICITY   = .00011691
INCLINATION    = 53.1606
RA_OF_ASC_NODE = 43.1154
ARG_OF_PERICENTER = 60.8855
MEAN_ANOMALY   = 196.4621

EPHEMERIS_TYPE = 0
CLASSIFICATION_TYPE = U
NORAD_CAT_ID   = 65917
ELEMENT_SET_NO = 999
REV_AT_EPOCH   = 476
BSTAR          = -.34106265E-1
MEAN_MOTION_DOT = -.183622E-1
MEAN_MOTION_DDOT = 0

CCSDS_OMM_VERS = 2.0
CREATION_DATE  = 
ORIGINATOR     = 

OBJECT_NAME    = STARLINK-35516
OBJECT_ID      = 2025-225J
CENTER_NAME    = EARTH
REF_FRAME      = TEME
TIME_SYSTEM    = UTC
MEAN_ELEMENT_THEORY = SGP/SGP4

EPOCH          = 2025-11-01T14:00:01.999872
MEAN_MOTION    = 15.51818183
ECCENTRICITY   = .00011541
INCLINATION    = 53.1604
RA_OF_ASC_NODE = 43.1195
ARG_OF_PERICENTER = 64.2794
MEAN_ANOMALY   = 191.1524

EPHEMERIS_TYPE = 0
CLASSIFICATION_TYPE = U
NORAD_CAT_ID   = 65918
ELEMENT_SET_NO = 999
REV_AT_EPOCH   = 481
BSTAR          = -.34337029E-1
MEAN_MOTION_DOT = -.1847297E-1
MEAN_MOTION_DDOT = 0

CCSDS_OMM_VERS = 2.0
CREATION_DATE  = 
ORIGINATOR     = 

OBJECT_NAME    = STARLINK-35519
OBJECT_ID      = 2025-225K
CENTER_NAME    = EARTH
REF_FRAME      = TEME
TIME_SYSTEM    = UTC
MEAN_ELEMENT_THEORY = SGP/SGP4

EPOCH          = 2025-11-01T14:00:01.999872
MEAN_MOTION    = 15.51820610
ECCENTRICITY   = .00011688
INCLINATION    = 53.1601
RA_OF_ASC_NODE = 43.1121
ARG_OF_PERICENTER = 79.9210
MEAN_ANOMALY   = 179.3429

EPHEMERIS_TYPE = 0
CLASSIFICATION_TYPE = U
NORAD_CAT_ID   = 65919
ELEMENT_SET_NO = 999
REV_AT_EPOCH   = 481
BSTAR          = -.34395917E-1
MEAN_MOTION_DOT = -.1850249E-1
MEAN_MOTION_DDOT = 0

CCSDS_OMM_VERS = 2.0
CREATION_DATE  = 
ORIGINATOR     = 

OBJECT_NAME    = STARLINK-33902
OBJECT_ID      = 2025-225L
CENTER_NAME    = EARTH
REF_FRAME      = TEME
TIME_SYSTEM    = UTC
MEAN_ELEMENT_THEORY = SGP/SGP4

EPOCH          = 2025-11-01T14:00:01.999872
MEAN_MOTION    = 15.51815171
ECCENTRICITY   = .00011334
INCLINATION    = 53.1606
RA_OF_ASC_NODE = 43.1073
ARG_OF_PERICENTER = 67.2390
MEAN_ANOMALY   = 193.9432

EPHEMERIS_TYPE = 0
CLASSIFICATION_TYPE = U
NORAD_CAT_ID   = 65920
ELEMENT_SET_NO = 999
REV_AT_EPOCH   = 480
BSTAR          = -.34065549E-1
MEAN_MOTION_DOT = -.1834184E-1
MEAN_MOTION_DDOT = 0

CCSDS_OMM_VERS = 2.0
CREATION_DATE  = 
ORIGINATOR     = 

OBJECT_NAME    = STARLINK-35530
OBJECT_ID      = 2025-225M
CENTER_NAME    = EARTH
REF_FRAME      = TEME
TIME_SYSTEM    = UTC
MEAN_ELEMENT_THEORY = SGP/SGP4

EPOCH          = 2025-11-01T14:00:01.999872
MEAN_MOTION    = 15.51814247
ECCENTRICITY   = .00011441
INCLINATION    = 53.1605
RA_OF_ASC_NODE = 43.1038
ARG_OF_PERICENTER = 63.9501
MEAN_ANOMALY   = 199.1499

EPHEMERIS_TYPE = 0
CLASSIFICATION_TYPE = U
NORAD_CAT_ID   = 65921
ELEMENT_SET_NO = 999
REV_AT_EPOCH   = 476
BSTAR          = -.34149307E-1
MEAN_MOTION_DOT = -.1838126E-1
MEAN_MOTION_DDOT = 0

CCSDS_OMM_VERS = 2.0
CREATION_DATE  = 
ORIGINATOR     = 

OBJECT_NAME    = STARLINK-35544
OBJECT_ID      = 2025-225N
CENTER_NAME    = EARTH
REF_FRAME      = TEME
TIME_SYSTEM    = UTC
MEAN_ELEMENT_THEORY = SGP/SGP4

EPOCH          = 2025-11-01T14:00:01.999872
MEAN_MOTION    = 15.51817007
ECCENTRICITY   = .00011351
INCLINATION    = 53.1607
RA_OF_ASC_NODE = 43.0995
ARG_OF_PERICENTER = 58.6704
MEAN_ANOMALY   = 206.3438

EPHEMERIS_TYPE = 0
CLASSIFICATION_TYPE = U
NORAD_CAT_ID   = 65922
ELEMENT_SET_NO = 999
REV_AT_EPOCH   = 481
BSTAR          = -.34130368E-1
MEAN_MOTION_DOT = -.1837381E-1
MEAN_MOTION_DDOT = 0

CCSDS_OMM_VERS = 2.0
CREATION_DATE  = 
ORIGINATOR     = 

OBJECT_NAME    = STARLINK-35484
OBJECT_ID      = 2025-225P
CENTER_NAME    = EARTH
REF_FRAME      = TEME
TIME_SYSTEM    = UTC
MEAN_ELEMENT_THEORY = SGP/SGP4

EPOCH          = 2025-11-01T14:00:01.999872
MEAN_MOTION    = 15.51817990
ECCENTRICITY   = .00013055
INCLINATION    = 53.1602
RA_OF_ASC_NODE = 43.0956
ARG_OF_PERICENTER = 73.5421
MEAN_ANOMALY   = 193.3888

EPHEMERIS_TYPE = 0
CLASSIFICATION_TYPE = U
NORAD_CAT_ID   = 65923
ELEMENT_SET_NO = 999
REV_AT_EPOCH   = 481
BSTAR          = -.34398331E-1
MEAN_MOTION_DOT = -.1850288E-1
MEAN_MOTION_DDOT = 0

CCSDS_OMM_VERS = 2.0
CREATION_DATE  = 
ORIGINATOR     = 

OBJECT_NAME    = STARLINK-34994
OBJECT_ID      = 2025-225Q
CENTER_NAME    = EARTH
REF_FRAME      = TEME
TIME_SYSTEM    = UTC
MEAN_ELEMENT_THEORY = SGP/SGP4

EPOCH          = 2025-11-01T14:00:01.999872
MEAN_MOTION    = 15.51818441
ECCENTRICITY   = .00011746
INCLINATION    = 53.1601
RA_OF_ASC_NODE = 43.0914
ARG_OF_PERICENTER = 73.4705
MEAN_ANOMALY   = 195.3787

EPHEMERIS_TYPE = 0
CLASSIFICATION_TYPE = U
NORAD_CAT_ID   = 65924
ELEMENT_SET_NO = 999
REV_AT_EPOCH   = 481
BSTAR          = -.34457245E-1
MEAN_MOTION_DOT = -.1853039E-1
MEAN_MOTION_DDOT = 0

CCSDS_OMM_VERS = 2.0
CREATION_DATE  = 
ORIGINATOR     = 

OBJECT_NAME    = STARLINK-35458
OBJECT_ID      = 2025-225R
CENTER_NAME    = EARTH
REF_FRAME      = TEME
TIME_SYSTEM    = UTC
MEAN_ELEMENT_THEORY = SGP/SGP4

EPOCH          = 2025-11-01T14:00:01.999872
MEAN_MOTION    = 15.51820950
ECCENTRICITY   = .00011953
INCLINATION    = 53.1601
RA_OF_ASC_NODE = 43.0833
ARG_OF_PERICENTER = 82.4979
MEAN_ANOMALY   = 190.1828

EPHEMERIS_TYPE = 0
CLASSIFICATION_TYPE = U
NORAD_CAT_ID   = 65925
ELEMENT_SET_NO = 999
REV_AT_EPOCH   = 481
BSTAR          = -.34355583E-1
MEAN_MOTION_DOT = -.1848367E-1
MEAN_MOTION_DDOT = 0

