STARLINK-35524          
1 65914U 25225E   25305.58335648 -.01842808  00000+0 -34243-1 0  9997
2 65914  53.1603  43.1323 0001112  69.8775 179.8039 15.51818162  4816
STARLINK-35539          
1 65915U 25225F   25305.58335648 -.01501148  00000+0 -40101-1 0  9997
2 65915  53.1594  43.5778 0001361  91.7168 296.6483 15.40685083  4756
STARLINK-35521          
1 65916U 25225G   25305.58335648 -.01849573  00000+0 -34382-1 0  9999
2 65916  53.1608  43.1235 0001182  71.5413 181.9729 15.51820579  4816
STARLINK-35478          
1 65917U 25225H   25305.58335648 -.01836220  00000+0 -34106-1 0  9999
2 65917  53.1606  43.1154 0001169  60.8855 196.4621 15.51816457  4767
STARLINK-35516          
1 65918U 25225J   25305.58335648 -.01847297  00000+0 -34337-1 0  9992
2 65918  53.1604  43.1195 0001154  64.2794 191.1524 15.51818183  4813
STARLINK-35519          
1 65919U 25225K   25305.58335648 -.01850249  00000+0 -34396-1 0  9999
2 65919  53.1601  43.1121 0001168  79.9210 179.3429 15.51820610  4811
STARLINK-33902          
1 65920U 25225L   25305.58335648 -.01834184  00000+0 -34066-1 0  9995
2 65920  53.1606  43.1073 0001133  67.2390 193.9432 15.51815171  4806
STARLINK-35530          
1 65921U 25225M   25305.58335648 -.01838126  00000+0 -34149-1 0  9998
2 65921  53.1605  43.1038 0001144  63.9501 199.1499 15.51814247  4765
STARLINK-35544          
1 65922U 25225N   25305.58335648 -.01837381  00000+0 -34130-1 0  9991
2 65922  53.1607  43.0995 0001135  58.6704 206.3438 15.51817007  4812
STARLINK-35484          
1 65923U 25225P   25305.58335648 -.01850288  00000+0 -34398-1 0  9999
2 65923  53.1602  43.0956 0001305  73.5421 193.3888 15.51817990  4811
STARLINK-34994          
1 65924U 25225Q   25305.58335648 -.01853039  00000+0 -34457-1 0  9993
2 65924  53.1601  43.0914 0001174  73.4705 195.3787 15.51818441  4815
STARLINK-35458          
1 65925U 25225R   25305.58335648 -.01848367  00000+0 -34356-1 0  9990
2 65925  53.1601  43.0833 0001195  82.4979 190.1828 15.51820950  4819
